NORAD_CAT_ID,OBJECT_NAME,OBJECT_TYPE,EPOCH,MEAN_MOTION,ECCENTRICITY,INCLINATION,RA_OF_ASC_NODE,ARG_OF_PERICENTER,MEAN_ANOMALY,BSTAR,MEAN_MOTION_DOT,MEAN_MOTION_DDOT,TLE_LINE0,TLE_LINE1,TLE_LINE2,SEMIMAJOR_AXIS,PERIOD,APOGEE,PERIGEE,DECAYED
53750.0,STARLINK-4612,PAYLOAD,2023-05-17 20:39:21,15.08837082,0.0001296,53.2144,193.9808,82.9803,277.1337,0.00012837,1.756e-05,0.0,0 STARLINK-4612,1 53750U 22107BC  23137.86066876  .00001756  00000-0  12837-3 0  9998,2 53750  53.2144 193.9808 0001296  82.9803 277.1337 15.08837082 39584,6917.889,95.438,540.651,538.858,0.0
53750.0,STARLINK-4612,PAYLOAD,2023-05-18 14:08:36,15.08841866,0.0001186,53.2151,190.7103,92.0018,268.111,9.8702e-05,1.283e-05,0.0,0 STARLINK-4612,1 53750U 22107BC  23138.58930725  .00001283  00000-0  98702-4 0  9992,2 53750  53.2151 190.7103 0001186  92.0018 268.1110 15.08841866 39699,6917.875,95.437,540.56,538.919,0.0
53750.0,STARLINK-4612,PAYLOAD,2023-05-18 15:43:59,15.08842857,0.0001183,53.2151,190.4129,91.754,268.3588,0.00010356,1.361e-05,0.0,0 STARLINK-4612,1 53750U 22107BC  23138.65554631  .00001361  00000-0  10356-3 0  9993,2 53750  53.2151 190.4129 0001183  91.7540 268.3588 15.08842857 38913,6917.872,95.437,540.555,538.918,0.0
53750.0,STARLINK-4612,PAYLOAD,2023-05-19 20:20:55,15.0884219,0.0001195,53.2151,185.06,89.208,270.9049,7.4075e-05,8.91e-06,0.0,0 STARLINK-4612,1 53750U 22107BC  23139.84786692  .00000891  00000-0  74075-4 0  9995,2 53750  53.2151 185.0600 0001195  89.2080 270.9049 15.08842190 39889,6917.874,95.437,540.565,538.912,0.0
53750.0,STARLINK-4612,PAYLOAD,2023-05-20 02:42:28,15.08841833,0.0001191,53.2148,183.8702,90.0457,270.0672,9.2763e-05,1.189e-05,0.0,0 STARLINK-4612,1 53750U 22107BC  23140.11282643  .00001189  00000-0  92763-4 0  9999,2 53750  53.2148 183.8702 0001191  90.0457 270.0672 15.08841833 39132,6917.875,95.437,540.564,538.916,0.0
53750.0,STARLINK-4612,PAYLOAD,2023-05-20 20:11:42,15.0884992,0.0001249,53.2152,180.5994,88.4929,271.6206,0.00011745,1.582e-05,0.0,0 STARLINK-4612,1 53750U 22107BC  23140.84145970  .00001582  00000-0  11745-3 0  9997,2 53750  53.2152 180.5994 0001249  88.4929 271.6206 15.08849920 40039,6917.85,95.437,540.579,538.851,0.0
53750.0,STARLINK-4612,PAYLOAD,2023-05-21 07:19:24,15.088455,0.0001336,53.2146,178.5184,85.7549,274.3595,0.00012587,1.716e-05,0.0,0 STARLINK-4612,1 53750U 22107BC  23141.30514295  .00001716  00000-0  12587-3 0  9993,2 53750  53.2146 178.5184 0001336  85.7549 274.3595 15.08845500 39315,6917.864,95.437,540.653,538.804,0.0
53750.0,STARLINK-4612,PAYLOAD,2023-05-21 08:54:47,15.08845542,0.000133,53.2146,178.2211,85.6231,274.4913,0.00012298,1.67e-05,0.0,0 STARLINK-4612,1 53750U 22107BC  23141.37138272  .00001670  00000-0  12298-3 0  9995,2 53750  53.2146 178.2211 0001330  85.6231 274.4913 15.08845542 40115,6917.863,95.437,540.649,538.808,0.0
53750.0,STARLINK-4612,PAYLOAD,2023-05-21 20:02:29,15.08847451,0.0001336,53.2146,176.1397,84.4645,275.6499,0.0001306,1.792e-05,0.0,0 STARLINK-4612,1 53750U 22107BC  23141.83506034  .00001792  00000-0  13060-3 0  9994,2 53750  53.2146 176.1397 0001336  84.4645 275.6499 15.08847451 40189,6917.858,95.437,540.647,538.798,0.0
53750.0,STARLINK-4612,PAYLOAD,2023-05-22 02:24:02,15.08835431,0.0001398,53.2144,174.9503,83.2828,276.8324,-3.8347e-05,-8.98e-06,0.0,0 STARLINK-4612,1 53750U 22107BC  23142.10002868 -.00000898  00000-0 -38347-4 0  9995,2 53750  53.2144 174.9503 0001398  83.2828 276.8324 15.08835431 39431,6917.894,95.438,540.726,538.792,0.0
53750.0,STARLINK-4612,PAYLOAD,2023-05-22 08:45:35,15.08834522,0.0001444,53.216,173.7611,82.9758,277.1399,-2.7346e-05,-7.23e-06,0.0,0 STARLINK-4612,1 53750U 22107BC  23142.36499286 -.00000723  00000-0 -27346-4 0  9991,2 53750  53.2160 173.7611 0001444  82.9758 277.1399 15.08834522 40265,6917.897,95.438,540.761,538.763,0.0
53750.0,STARLINK-4612,PAYLOAD,2023-05-23 11:47:08,15.08834243,0.0001222,53.2154,168.703,82.3843,277.7288,6.2581e-05,7.08e-06,0.0,0 STARLINK-4612,1 53750U 22107BC  23143.49107223  .00000708  00000-0  62581-4 0  9994,2 53750  53.2154 168.7030 0001222  82.3843 277.7288 15.08834243 39643,6917.898,95.438,540.608,538.918,0.0
53750.0,STARLINK-4612,PAYLOAD,2023-05-23 18:08:41,15.08834752,0.0001232,53.2155,167.5135,82.3058,277.8074,6.2495e-05,7.07e-06,0.0,0 STARLINK-4612,1 53750U 22107BC  23143.75603294  .00000707  00000-0  62495-4 0  9995,2 53750  53.2155 167.5135 0001232  82.3058 277.8074 15.08834752 40478,6917.896,95.438,540.614,538.909,0.0
53750.0,STARLINK-4612,PAYLOAD,2023-05-24 08:27:09,15.08835333,0.0001204,53.2156,164.8382,80.4706,279.6422,0.00014076,1.953e-05,0.0,0 STARLINK-4612,1 53750U 22107BC  23144.35219311  .00001953  00000-0  14076-3 0  9990,2 53750  53.2156 164.8382 0001204  80.4706 279.6422 15.08835333 40564,6917.895,95.438,540.593,538.927,0.0
53750.0,STARLINK-4612,PAYLOAD,2023-05-26 04:57:57,15.08838885,0.0001216,53.2153,156.513,82.8653,277.2477,3.4552e-05,2.62e-06,0.0,0 STARLINK-4612,1 53750U 22107BC  23146.20691709  .00000262  00000-0  34552-4 0  9995,2 53750  53.2153 156.5130 0001216  82.8653 277.2477 15.08838885 40053,6917.884,95.438,540.59,538.908,0.0
53750.0,STARLINK-4612,PAYLOAD,2023-05-26 09:44:07,15.08839134,0.0001203,53.2148,155.6204,79.9048,280.208,3.8311e-05,3.22e-06,0.0,0 STARLINK-4612,1 53750U 22107BC  23146.40563680  .00000322  00000-0  38311-4 0  9997,2 53750  53.2148 155.6204 0001203  79.9048 280.2080 15.08839134 40872,6917.883,95.438,540.58,538.916,0.0
53750.0,STARLINK-4612,PAYLOAD,2023-05-27 07:59:30,15.088395,0.0001179,53.2149,151.4569,81.6141,278.4985,5.7746e-05,6.31e-06,0.0,0 STARLINK-4612,1 53750U 22107BC  23147.33299640  .00000631  00000-0  57746-4 0  9998,2 53750  53.2149 151.4569 0001179  81.6141 278.4985 15.08839500 40226,6917.882,95.438,540.563,538.931,0.0
53750.0,STARLINK-4612,PAYLOAD,2023-05-27 17:31:49,15.08839845,0.0001178,53.2149,149.6725,81.4576,278.655,6.3272e-05,7.19e-06,0.0,0 STARLINK-4612,1 53750U 22107BC  23147.73043621  .00000719  00000-0  63272-4 0  9996,2 53750  53.2149 149.6725 0001178  81.4576 278.6550 15.08839845 41074,6917.881,95.438,540.561,538.931,0.0
53750.0,STARLINK-4612,PAYLOAD,2023-05-28 06:14:54,15.08842227,0.0001191,53.2149,147.2936,81.0627,279.0499,7.034e-05,8.32e-06,0.0,0 STARLINK-4612,1 53750U 22107BC  23148.26035476  .00000832  00000-0  70340-4 0  9994,2 53750  53.2149 147.2936 0001191  81.0627 279.0499 15.08842227 41154,6917.874,95.437,540.563,538.915,0.0
53750.0,STARLINK-4612,PAYLOAD,2023-05-29 04:30:18,15.08841928,0.0001203,53.2152,143.1306,79.9615,280.1513,5.3704e-05,5.67e-06,0.0,0 STARLINK-4612,1 53750U 22107BC  23149.18771461  .00000567  00000-0  53704-4 0  9997,2 53750  53.2152 143.1306 0001203  79.9615 280.1513 15.08841928 40506,6917.874,95.437,540.572,538.907,0.0
53750.0,STARLINK-4612,PAYLOAD,2023-05-29 06:05:41,15.08842812,0.0001191,53.215,142.8329,81.4358,278.6769,6.1085e-05,6.85e-06,0.0,0 STARLINK-4612,1 53750U 22107BC  23149.25395360  .00000685  00000-0  61085-4 0  9997,2 53750  53.2150 142.8329 0001191  81.4358 278.6769 15.08842812 41300,6917.872,95.437,540.561,538.913,0.0
53750.0,STARLINK-4612,PAYLOAD,2023-05-30 09:07:15,15.08839572,0.0001201,53.2151,137.7778,83.3363,276.7766,1.4982e-05,-4.9e-07,0.0,0 STARLINK-4612,1 53750U 22107BC  23150.38003618 -.00000049  00000-0  14982-4 0  9994,2 53750  53.2151 137.7778 0001201  83.3363 276.7766 15.08839572 40686,6917.882,95.438,540.578,538.916,0.0
53750.0,STARLINK-4612,PAYLOAD,2023-05-31 05:47:15,15.08840891,0.0001243,53.2156,133.9119,85.4591,274.6543,4.5953e-05,4.44e-06,0.0,0 STARLINK-4612,1 53750U 22107BC  23151.24115500  .00000444  00000-0  45953-4 0  9994,2 53750  53.2156 133.9119 0001243  85.4591 274.6543 15.08840891 41609,6917.878,95.437,540.603,538.883,0.0
53750.0,STARLINK-4612,PAYLOAD,2023-05-31 15:19:34,15.08837217,0.000121,53.2153,132.1273,82.4759,277.6371,2.867e-05,1.68e-06,0.0,0 STARLINK-4612,1 53750U 22107BC  23151.63859810  .00000168  00000-0  28670-4 0  9996,2 53750  53.2153 132.1273 0001210  82.4759 277.6371 15.08837217 40873,6917.889,95.438,540.591,538.917,0.0
53750.0,STARLINK-4612,PAYLOAD,2023-06-01 05:38:03,15.08837134,0.0001215,53.2153,129.4523,89.2145,270.8986,5.0222e-05,5.11e-06,0.0,0 STARLINK-4612,1 53750U 22107BC  23152.23475887  .00000511  00000-0  50222-4 0  9991,2 53750  53.2153 129.4523 0001215  89.2145 270.8986 15.08837134 41752,6917.889,95.438,540.595,538.914,0.0
53750.0,STARLINK-4612,PAYLOAD,2023-06-02 02:18:04,15.08838233,0.0001208,53.2151,125.5874,94.1527,265.9603,3.2089e-05,2.23e-06,0.0,0 STARLINK-4612,1 53750U 22107BC  23153.09588061  .00000223  00000-0  32089-4 0  9996,2 53750  53.2151 125.5874 0001208  94.1527 265.9603 15.08838233 41096,6917.886,95.438,540.586,538.915,0.0
53750.0,STARLINK-4612,PAYLOAD,2023-06-02 05:28:50,15.08839038,0.0001217,53.2151,124.9927,93.5141,266.599,3.9301e-05,3.38e-06,0.0,0 STARLINK-4612,1 53750U 22107BC  23153.22836004  .00000338  00000-0  39301-4 0  9995,2 53750  53.2151 124.9927 0001217  93.5141 266.5990 15.08839038 41903,6917.883,95.438,540.59,538.906,0.0
53750.0,STARLINK-4612,PAYLOAD,2023-06-02 15:01:09,15.08837462,0.0001207,53.2154,123.2083,91.4432,268.6698,4.4773e-05,4.25e-06,0.0,0 STARLINK-4612,1 53750U 22107BC  23153.62580171  .00000425  00000-0  44773-4 0  9996,2 53750  53.2154 123.2083 0001207  91.4432 268.6698 15.08837462 41963,6917.888,95.438,540.588,538.918,0.0
53750.0,STARLINK-4612,PAYLOAD,2023-06-03 02:08:51,15.08830469,0.0001222,53.2153,121.1266,92.3453,267.7679,1.5579e-06,-2.63e-06,0.0,0 STARLINK-4612,1 53750U 22107BC  23154.08948925 -.00000263  00000-0  15579-5 0  9996,2 53750  53.2153 121.1266 0001222  92.3453 267.7679 15.08830469 41242,6917.91,95.438,540.62,538.929,0.0
53750.0,STARLINK-4612,PAYLOAD,2023-06-03 06:55:01,15.08834481,0.0001237,53.2155,120.2344,91.2708,268.8426,1.9698e-05,2.6e-07,0.0,0 STARLINK-4612,1 53750U 22107BC  23154.28820719  .00000026  00000-0  19698-4 0  9999,2 53750  53.2155 120.2344 0001237  91.2708 268.8426 15.08834481 42069,6917.897,95.438,540.618,538.907,0.0
